{
  "type": "FeatureCollection",
  "features": [
    {
      "type": "Feature",
      "properties": {},
      "geometry": {
        "type": "Polygon",
        "coordinates": [
          [
            [
              120.335226,
              16.357698
            ],
            [
              120.342522,
              16.359757
            ],
            [
              120.354023,
              16.360745
            ],
            [
              120.362434,
              16.360827
            ],
            [
              120.367756,
              16.362227
            ],
            [
              120.37488,
              16.358686
            ],
            [
              120.377455,
              16.360415
            ],
            [
              120.388184,
              16.358356
            ],
            [
              120.394878,
              16.355062
            ],
            [
              120.396767,
              16.345261
            ],
            [
              120.399599,
              16.33093
            ],
            [
              120.400887,
              16.313055
            ],
            [
              120.410585,
              16.315115
            ],
            [
              120.415306,
              16.314703
            ],
            [
              120.422173,
              16.313467
            ],
            [
              120.424147,
              16.304159
            ],
            [
              120.416937,
              16.302758
            ],
            [
              120.408268,
              16.297651
            ],
            [
              120.395565,
              16.298145
            ],
            [
              120.383034,
              16.299957
            ],
            [
              120.380802,
              16.297898
            ],
            [
              120.36561,
              16.295344
            ],
            [
              120.348787,
              16.280844
            ],
            [
              120.344238,
              16.294355
            ],
            [
              120.339003,
              16.305889
            ],
            [
              120.339775,
              16.317751
            ],
            [
              120.342436,
              16.333813
            ],
            [
              120.343466,
              16.346003
            ],
            [
              120.335226,
              16.357698
            ]
          ]
        ]
      }
    }
  ]
}